0 BREEZE-M DEB
1 38920U 12044BD  13253.81520384  .01377905  40287-3  63182-2 0  5363
2 38920 049.9629 158.9232 0460116 254.3060 100.6688 15.05131607 39708
0 BREEZE-M DEB
1 38920U 12044BD  13254.21339605  .01403733  42180-3  63728-2 0  5372
2 38920 049.9626 157.0036 0455595 255.9190 099.0730 15.06268101 39769
0 BREEZE-M DEB
1 38920U 12044BD  13254.61129126  .01427764  44020-3  62804-2 0  5381
2 38920 049.9645 155.0789 0452573 257.3036 097.7173 15.07397206 39824
0 BREEZE-M DEB
1 38920U 12044BD  13254.81013238  .01467238  46776-3  65592-2 0  5397
2 38920 049.9622 154.1214 0449318 258.3126 096.7087 15.07870282 39841
0 BREEZE-M DEB
1 38920U 12044BD  13255.14136150  .01475785  47640-3  65394-2 0  5402
2 38920 049.9620 152.5178 0445492 259.6631 095.3824 15.08836456 39899
0 BREEZE-M DEB
1 38920U 12044BD  13255.53859397  .01371018  00000-0  54419-2 0  5417
2 38920 049.9565 150.5851 0447484 261.7341 093.2220 15.09905088 39142
0 BREEZE-M DEB
1 38920U 12044BD  13255.67091286  .01736321  00000-0  84977-2 0  5433
2 38920 049.9621 149.9590 0430762 261.7343 093.3845 15.10421815 39978
0 BREEZE-M DEB
1 38920U 12044BD  13255.80320267  .01551389  53622-3  67508-2 0  5411
2 38920 049.9618 149.3081 0438299 262.3032 092.7950 15.10678405 39999
0 BREEZE-M DEB
1 38920U 12044BD  13255.80321491  .01750648  00000-0  85387-2 0  5458
2 38920 049.9612 149.3185 0429209 262.2726 092.8516 15.10810055 39996
0 BREEZE-M DEB
1 38920U 12044BD  13256.06771026  .01579525  56059-3  68170-2 0  5429
2 38920 049.9616 148.0226 0434664 263.3473 091.7840 15.11594108 40038
0 BREEZE-M DEB
1 38920U 12044BD  13256.72832946  .01665142  63693-3  70405-2 0  5439
2 38920 049.9614 144.8055 0426499 265.9470 089.2640 15.13682451 40134
0 BREEZE-M DEB
1 38920U 12044BD  13257.05828567  .01567074  56259-3  65425-2 0  5442
2 38920 049.9613 143.1955 0422363 267.3438 087.9113 15.14762642 40187
0 BREEZE-M DEB
1 38920U 12044BD  13258.11263907  .01430366  47261-3  57700-2 0  5455
2 38920 049.9601 138.0321 0409875 271.5575 083.8478 15.17975934 40346
0 BREEZE-M DEB
1 38920U 12044BD  13258.44167622  .01484925  51513-3  59383-2 0  5463
2 38920 049.9598 136.4151 0406222 272.8922 082.5622 15.18900589 40394
0 BREEZE-M DEB
1 38920U 12044BD  13258.70476712  .01464878  50315-3  57239-2 0  5478
2 38920 049.9635 135.1136 0403991 274.0122 081.5058 15.19725002 40445
0 BREEZE-M DEB
1 38920U 12044BD  13258.83624590  .01605460  61422-3  63514-2 0  5480
2 38920 049.9594 134.4724 0401804 274.4567 081.0597 15.20027251 40459
0 BREEZE-M DEB
1 38920U 12044BD  13259.03341822  .01551902  57323-3  60970-2 0  5497
2 38920 049.9592 133.5009 0399348 275.2779 080.2739 15.20658309 40482
0 BREEZE-M DEB
1 38920U 12044BD  13259.82131200  .01733384  74216-3  66418-2 0  5502
2 38920 049.9583 129.6109 0389805 278.4601 077.2363 15.23110323 40600
0 BREEZE-M DEB
1 38920U 12044BD  13260.14921053  .01667265  68721-3  62979-2 0  5519
2 38920 049.9579 127.9883 0385396 279.8079 075.9571 15.24268810 40657
0 BREEZE-M DEB
1 38920U 12044BD  13260.80425038  .01938457  97811-3  71519-2 0  5532
2 38920 049.9571 124.7365 0375459 282.4222 073.4967 15.26792995 40759
0 BREEZE-M DEB
1 38920U 12044BD  13260.80431202  .01877570  91035-3  66485-2 0  5527
2 38920 049.9642 124.7344 0378357 283.2477 072.9279 15.26759206 40765
0 BREEZE-M DEB
1 38920U 12044BD  13261.13135957  .01814814  85275-3  65754-2 0  5543
2 38920 049.9567 123.1083 0370449 283.7532 072.2457 15.28127075 40806
0 BREEZE-M DEB
1 38920U 12044BD  13261.65416400  .01877425  93389-3  66630-2 0  5563
2 38920 049.9566 120.4974 0362870 285.8011 070.3223 15.30073060 40894
0 BREEZE-M DEB
1 38920U 12044BD  13261.65417051  .01998401  10757-2  70807-2 0  5551
2 38920 049.9603 120.4881 0362750 285.3847 070.7925 15.30138708 40896
0 BREEZE-M DEB
1 38920U 12044BD  13261.98056742  .01912741  98577-3  66696-2 0  5576
2 38920 049.9564 118.8662 0356993 287.1030 069.1126 15.31602579 40939
0 BREEZE-M DEB
1 38920U 12044BD  13262.63244723  .02448142  00000-0  94465-2 0  5595
2 38920 049.9563 115.6093 0336038 289.9937 066.4147 15.34389559 41033
0 BREEZE-M DEB
1 38920U 12044BD  13262.63246453  .02302027  15451-2  75696-2 0  5580
2 38920 049.9620 115.5887 0348166 289.7473 066.7863 15.34419975 41040
0 BREEZE-M DEB
1 38920U 12044BD  13262.95791156  .02881051  00000-0  11868-1 0  5615
2 38920 049.9604 113.9865 0323748 291.7892 064.7458 15.35977143 41097
0 BREEZE-M DEB
1 38920U 12044BD  13263.08797563  .02136966  13260-2  69953-2 0  5620
2 38920 049.9556 113.2994 0337450 291.5636 064.9679 15.36761184 41104
0 BREEZE-M DEB
1 38920U 12044BD  13263.80246330  .02559475  20981-2  76485-2 0  5632
2 38920 049.9528 109.6267 0328388 294.5851 062.1222 15.40110787 41215
0 BREEZE-M DEB
1 38920U 12044BD  13263.99705074  .02532057  20643-2  74583-2 0  5647
2 38920 049.9522 108.6416 0324607 295.3744 061.3939 15.41123568 41245
0 BREEZE-M DEB
1 38920U 12044BD  13264.83878150  .02825693  28402-2  78124-2 0  5655
2 38920 049.9508 104.3456 0308281 298.7705 058.2614 15.45613333 41377
0 BREEZE-M DEB
1 38920U 12044BD  13264.96805690  .02973952  32673-2  81407-2 0  5664
2 38920 049.9503 103.6804 0305511 299.3291 057.7471 15.46398876 41391
0 BREEZE-M DEB
1 38920U 12044BD  13265.80676283  .03571507  99764-5  87166-2 0  5679
2 38920 049.9487 099.3614 0287815 302.6923 054.6585 15.51354189 41520
0 BREEZE-M DEB
1 38920U 12044BD  13266.06425863  .03901992  10030-4  97596-2 0  5686
2 38920 049.9521 098.1178 0279786 303.5136 053.9383 15.52706923 41565
0 BREEZE-M DEB
1 38920U 12044BD  13266.57840687  .04471142  10144-4  10696-1 0  5701
2 38920 049.9506 095.4549 0267757 305.4469 052.1768 15.55864166 41649
0 BREEZE-M DEB
1 38920U 12044BD  13266.57846243  .03282731  10111-4  77209-2 0  5694
2 38920 049.9567 095.4403 0265708 305.4046 052.4242 15.56536354 41657
0 BREEZE-M DEB
1 38920U 12044BD  13267.53905645  .06944443  10467-4  14065-1 0  5729
2 38920 049.9386 090.2944 0243115 309.2738 048.6889 15.63326494 41796
0 BREEZE-M DEB
1 38920U 12044BD  13267.53917202  .03663282  10328-4  58718-2 0  5716
2 38920 049.9533 090.3993 0255458 308.9887 049.2712 15.63835959 41804
